{
  "type": "FeatureCollection",
  "features": [
    {
      "type": "Feature",
      "properties": {
        "norad_id": 36036,
        "name": "SMOS",
        "group": "resource",
        "lat": 44.82131534185271,
        "lon": 169.0562651633166,
        "alt_km": 754.8475497709305,
        "timestamp": "2025-12-18T13:51:49.317418+00:00",
        "meta_object_name": "SMOS",
        "meta_object_id": "2009-059A",
        "meta_epoch": "2025-12-18T01:58:40.326816",
        "meta_mean_motion": 14.3974595,
        "meta_eccentricity": 0.00010947,
        "meta_inclination": 98.438,
        "meta_ra_of_asc_node": 177.0517,
        "meta_arg_of_pericenter": 82.5578,
        "meta_mean_anomaly": 277.5734,
        "meta_ephemeris_type": 0,
        "meta_classification_type": "U",
        "meta_norad_cat_id": 36036,
        "meta_element_set_no": 999,
        "meta_rev_at_epoch": 84739,
        "meta_bstar": 0.00011713656,
        "meta_mean_motion_dot": 3.24e-06,
        "meta_mean_motion_ddot": 0,
        "tle_line1": "1 36036U 09059A   25352.08241119  .00000324  00000+0  11714-3 0  9999",
        "tle_line2": "2 36036  98.4380 177.0517 0001094  82.5578 277.5734 14.39745950847392"
      },
      "geometry": {
        "type": "Point",
        "coordinates": [
          169.0562651633166,
          44.82131534185271
        ]
      }
    },
    {
      "type": "Feature",
      "properties": {
        "norad_id": 36110,
        "name": "YAOGAN-7",
        "group": "resource",
        "lat": -51.50239611186884,
        "lon": -115.46338357640074,
        "alt_km": 632.1115117291492,
        "timestamp": "2025-12-18T13:51:49.317429+00:00",
        "meta_object_name": "YAOGAN-7",
        "meta_object_id": "2009-069A",
        "meta_epoch": "2025-12-18T05:58:25.938912",
        "meta_mean_motion": 14.77740552,
        "meta_eccentricity": 0.00233338,
        "meta_inclination": 98.0296,
        "meta_ra_of_asc_node": 233.9861,
        "meta_arg_of_pericenter": 262.4937,
        "meta_mean_anomaly": 97.3622,
        "meta_ephemeris_type": 0,
        "meta_classification_type": "U",
        "meta_norad_cat_id": 36110,
        "meta_element_set_no": 999,
        "meta_rev_at_epoch": 86290,
        "meta_bstar": 7.9361225e-05,
        "meta_mean_motion_dot": 5.18e-06,
        "meta_mean_motion_ddot": 0,
        "tle_line1": "1 36110U 09069A   25352.24891133  .00000518  00000+0  79361-4 0  9996",
        "tle_line2": "2 36110  98.0296 233.9861 0023333 262.4937  97.3622 14.77740552862902"
      },
      "geometry": {
        "type": "Point",
        "coordinates": [
          -115.46338357640074,
          -51.50239611186884
        ]
      }
    },
    {
      "type": "Feature",
      "properties": {
        "norad_id": 36605,
        "name": "TANDEM-X",
        "group": "resource",
        "lat": -17.829390897249876,
        "lon": 0.2829001440596804,
        "alt_km": 513.5767162345537,
        "timestamp": "2025-12-18T13:51:49.317440+00:00",
        "meta_object_name": "TANDEM-X",
        "meta_object_id": "2010-030A",
        "meta_epoch": "2025-12-17T14:13:48.411552",
        "meta_mean_motion": 15.19149806,
        "meta_eccentricity": 0.00018481,
        "meta_inclination": 97.4443,
        "meta_ra_of_asc_node": 356.9023,
        "meta_arg_of_pericenter": 79.8054,
        "meta_mean_anomaly": 280.3389,
        "meta_ephemeris_type": 0,
        "meta_classification_type": "U",
        "meta_norad_cat_id": 36605,
        "meta_element_set_no": 999,
        "meta_rev_at_epoch": 85907,
        "meta_bstar": 4.6537622e-05,
        "meta_mean_motion_dot": 9.1e-06,
        "meta_mean_motion_ddot": 0,
        "tle_line1": "1 36605U 10030A   25351.59292143  .00000910  00000+0  46538-4 0  9994",
        "tle_line2": "2 36605  97.4443 356.9023 0001848  79.8054 280.3389 15.19149806859071"
      },
      "geometry": {
        "type": "Point",
        "coordinates": [
          0.2829001440596804,
          -17.829390897249876
        ]
      }
    },
    {
      "type": "Feature",
      "properties": {
        "norad_id": 36795,
        "name": "CARTOSAT-2B",
        "group": "resource",
        "lat": -73.81722077779213,
        "lon": -166.70891466907042,
        "alt_km": 649.3110396632992,
        "timestamp": "2025-12-18T13:51:49.317450+00:00",
        "meta_object_name": "CARTOSAT-2B",
        "meta_object_id": "2010-035A",
        "meta_epoch": "2025-12-18T07:50:20.262624",
        "meta_mean_motion": 14.78733618,
        "meta_eccentricity": 0.00128996,
        "meta_inclination": 97.7852,
        "meta_ra_of_asc_node": 41.1759,
        "meta_arg_of_pericenter": 59.9672,
        "meta_mean_anomaly": 300.2817,
        "meta_ephemeris_type": 0,
        "meta_classification_type": "U",
        "meta_norad_cat_id": 36795,
        "meta_element_set_no": 999,
        "meta_rev_at_epoch": 83312,
        "meta_bstar": 0.00011317003,
        "meta_mean_motion_dot": 7.82e-06,
        "meta_mean_motion_ddot": 0,
        "tle_line1": "1 36795U 10035A   25352.32662341  .00000782  00000+0  11317-3 0  9995",
        "tle_line2": "2 36795  97.7852  41.1759 0012899  59.9672 300.2817 14.78733618833120"
      },
      "geometry": {
        "type": "Point",
        "coordinates": [
          -166.70891466907042,
          -73.81722077779213
        ]
      }
    },
    {
      "type": "Feature",
      "properties": {
        "norad_id": 36834,
        "name": "YAOGAN-10",
        "group": "resource",
        "lat": 77.53612867942716,
        "lon": -128.64474418318505,
        "alt_km": 606.5295490554836,
        "timestamp": "2025-12-18T13:51:49.317461+00:00",
        "meta_object_name": "YAOGAN-10",
        "meta_object_id": "2010-038A",
        "meta_epoch": "2025-12-18T07:31:44.092128",
        "meta_mean_motion": 14.84629859,
        "meta_eccentricity": 0.00014207,
        "meta_inclination": 97.9138,
        "meta_ra_of_asc_node": 12.0932,
        "meta_arg_of_pericenter": 81.4672,
        "meta_mean_anomaly": 48.3051,
        "meta_ephemeris_type": 0,
        "meta_classification_type": "U",
        "meta_norad_cat_id": 36834,
        "meta_element_set_no": 999,
        "meta_rev_at_epoch": 83036,
        "meta_bstar": 0.00025612261,
        "meta_mean_motion_dot": 2.111e-05,
        "meta_mean_motion_ddot": 0,
        "tle_line1": "1 36834U 10038A   25352.31370477  .00002111  00000+0  25612-3 0  9998",
        "tle_line2": "2 36834  97.9138  12.0932 0001420  81.4672  48.3051 14.84629859830362"
      },
      "geometry": {
        "type": "Point",
        "coordinates": [
          -128.64474418318505,
          77.53612867942716
        ]
      }
    },
    {
      "type": "Feature",
      "properties": {
        "norad_id": 37216,
        "name": "COSMO-SKYMED 4",
        "group": "resource",
        "lat": -28.83250188958872,
        "lon": 178.18500121247857,
        "alt_km": 628.7647834801528,
        "timestamp": "2025-12-18T13:51:49.317472+00:00",
        "meta_object_name": "COSMO-SKYMED 4",
        "meta_object_id": "2010-060A",
        "meta_epoch": "2025-12-18T07:30:49.808736",
        "meta_mean_motion": 14.82149571,
        "meta_eccentricity": 0.00013817,
        "meta_inclination": 97.88,
        "meta_ra_of_asc_node": 173.5519,
        "meta_arg_of_pericenter": 80.803,
        "meta_mean_anomaly": 279.334,
        "meta_ephemeris_type": 0,
        "meta_classification_type": "U",
        "meta_norad_cat_id": 37216,
        "meta_element_set_no": 999,
        "meta_rev_at_epoch": 81777,
        "meta_bstar": 5.188893e-06,
        "meta_mean_motion_dot": -1.1e-07,
        "meta_mean_motion_ddot": 0,
        "tle_line1": "1 37216U 10060A   25352.31307649 -.00000011  00000+0  51889-5 0  9994",
        "tle_line2": "2 37216  97.8800 173.5519 0001381  80.8030 279.3340 14.82149571817776"
      },
      "geometry": {
        "type": "Point",
        "coordinates": [
          178.18500121247857,
          -28.83250188958872
        ]
      }
    },
    {
      "type": "Feature",
      "properties": {
        "norad_id": 37387,
        "name": "RESOURCESAT-2",
        "group": "resource",
        "lat": 72.12828028715734,
        "lon": -95.23130964309267,
        "alt_km": 812.0960780545647,
        "timestamp": "2025-12-18T13:51:49.317483+00:00",
        "meta_object_name": "RESOURCESAT-2",
        "meta_object_id": "2011-015A",
        "meta_epoch": "2025-12-18T06:36:45.038592",
        "meta_mean_motion": 14.21599458,
        "meta_eccentricity": 0.00061775,
        "meta_inclination": 98.7871,
        "meta_ra_of_asc_node": 55.8024,
        "meta_arg_of_pericenter": 27.8312,
        "meta_mean_anomaly": 332.3195,
        "meta_ephemeris_type": 0,
        "meta_classification_type": "U",
        "meta_norad_cat_id": 37387,
        "meta_element_set_no": 999,
        "meta_rev_at_epoch": 76047,
        "meta_bstar": 7.4221033e-05,
        "meta_mean_motion_dot": 1.18e-06,
        "meta_mean_motion_ddot": 0,
        "tle_line1": "1 37387U 11015A   25352.27552128  .00000118  00000+0  74221-4 0  9994",
        "tle_line2": "2 37387  98.7871  55.8024 0006177  27.8312 332.3195 14.21599458760476"
      },
      "geometry": {
        "type": "Point",
        "coordinates": [
          -95.23130964309267,
          72.12828028715734
        ]
      }
    }
  ]
}